{"type":"FeatureCollection","features":[{"type":"Feature","geometry":{"type":"Polygon","coordinates":[[[-64.156,60.25],[-64.185,60.375],[-64.429,60.378],[-64.53,60.297],[-64.862,60.258],[-64.594,60.117],[-64.924,60.061],[-64.627,59.93],[-64.825,59.826],[-64.749,59.717],[-64.939,59.567],[-64.68,59.447],[-64.324,59.513],[-64.512,59.423],[-64.461,59.412],[-64.544,59.31],[-64.498,59.106],[-64.262,59.013],[-64.46,58.982],[-64.779,59.075],[-64.889,58.938],[-64.288,58.897],[-64.138,58.746],[-63.71,58.887],[-63.468,58.762],[-64.047,58.703],[-64.105,58.563],[-63.887,58.572],[-63.808,58.49],[-64.159,58.371],[-64.218,58.248],[-64.422,58.187],[-64.435,58.098],[-64.219,58.037],[-64.072,57.77],[-63.912,57.801],[-63.883,57.713],[-63.693,57.653],[-63.597,57.741],[-63.623,57.642],[-63.772,57.592],[-63.701,57.368],[-63.883,57.278],[-63.884,57.196],[-63.809,57.262],[-63.737,57.222],[-63.812,57.079],[-63.89,57.086],[-63.918,56.904],[-63.859,56.869],[-64.003,56.862],[-64.145,56.7],[-63.874,56.442],[-64.178,56.425],[-64.087,56.257],[-63.863,56.213],[-64.036,56.155],[-64.035,56.07],[-63.856,56.137],[-63.838,56.045],[-63.444,56.03],[-63.854,55.91],[-63.768,55.79],[-63.667,55.788],[-63.765,55.652],[-63.644,55.642],[-63.793,55.467],[-63.325,55.366],[-63.679,55.267],[-63.403,55.249],[-63.602,55.129],[-63.591,54.897],[-63.83,54.942],[-63.817,54.817],[-63.924,54.778],[-63.713,54.625],[-63.898,54.601],[-64.107,54.613],[-64.178,54.721],[-64.397,54.791],[-64.557,54.714],[-64.77,54.73],[-64.761,54.83],[-65.086,54.97],[-65.296,54.818],[-65.487,54.834],[-65.456,54.729],[-65.693,54.708],[-65.85,54.927],[-66.246,54.975],[-66.493,55.203],[-66.808,55.357],[-66.67,55.177],[-66.755,55.215],[-66.789,55.118],[-66.627,54.985],[-66.766,55],[-66.603,54.814],[-66.737,54.813],[-66.669,54.71],[-67.033,54.862],[-67.273,55.076],[-67.464,55.063],[-67.063,54.693],[-67.28,54.592],[-67.273,54.487],[-67.492,54.585],[-67.5,54.482],[-67.772,54.442],[-67.616,54.196],[-67.81,54.128],[-67.758,54.092],[-67.821,54.02],[-67.498,53.837],[-67.603,53.763],[-67.418,53.725],[-67.319,53.553],[-67.036,53.529],[-66.89,53.413],[-67.027,53.335],[-66.953,53.29],[-66.99,53.084],[-67.263,53.181],[-67.385,53.132],[-67.363,52.996],[-67.245,52.98],[-67.342,52.896],[-67.161,52.817],[-67.063,52.875],[-67.034,52.747],[-66.851,52.675],[-66.86,52.768],[-66.765,52.666],[-66.787,52.797],[-66.647,52.784],[-66.626,52.954],[-66.501,52.946],[-66.459,53.055],[-66.37,53.025],[-66.258,52.869],[-66.416,52.858],[-66.28,52.617],[-66.389,52.682],[-66.44,52.636],[-66.344,52.36],[-66.491,52.342],[-66.376,52.153],[-66.268,52.15],[-66.267,52.31],[-65.996,52.055],[-65.668,52.117],[-65.65,51.987],[-65.499,52.11],[-65.359,51.981],[-65.36,51.823],[-65.284,51.874],[-65.18,51.766],[-64.951,51.715],[-64.925,51.778],[-64.71,51.756],[-64.549,51.574],[-64.274,51.742],[-64.361,52.006],[-64.237,51.978],[-64.292,52.078],[-64.25,52.145],[-64.166,52.116],[-64.247,52.275],[-64.109,52.394],[-64.226,52.582],[-64.155,52.603],[-64.14,52.727],[-63.721,52.77],[-63.62,52.877],[-63.618,52.771],[-63.38,52.662],[-63.95,52.607],[-64.097,52.473],[-64.013,52.363],[-63.744,52.315],[-63.836,52.314],[-63.642,52.047],[-63.827,52.086],[-63.801,51.998],[-57.108,51.999],[-57.11,51.287],[-57.524,51.197],[-57.168,50.999],[-57.455,50.756],[-57.581,50.48],[-57.5,50.476],[-57.911,50.008],[-57.996,49.75],[-58.5,49.183],[-58.5,49.008],[-59.239,48.584],[-59.276,48.415],[-59.057,48.25],[-59.465,48],[-59.336,47.619],[-59.203,47.501],[-57.998,47.581],[-56.95,47.359],[-56.439,47.439],[-55.997,47.316],[-55.957,46.795],[-54.682,46.799],[-54.499,46.847],[-54.359,47.013],[-54.183,47],[-54.198,46.793],[-53.841,46.757],[-53.632,46.596],[-53.092,46.609],[-52.75,46.942],[-52.753,47.25],[-52.582,47.501],[-52.655,47.563],[-52.621,47.689],[-52.826,47.878],[-52.781,48.187],[-53,48.25],[-53,48.732],[-53.544,48.698],[-53.499,49],[-53.29,49.057],[-53.11,49.775],[-54.001,49.946],[-55.37,49.894],[-55.333,50],[-55.5,50],[-55.5,51.042],[-55.299,51.48],[-55.178,52.02],[-55.507,52.017],[-55.505,53.189],[-55.673,53.622],[-56.961,54.811],[-58.009,55.16],[-58.675,55.505],[-60,55.834],[-60.329,56.001],[-60.849,57.029],[-61.5,58],[-62.014,58],[-62.216,58.43],[-63.769,59.922],[-64.073,60.059],[-64.156,60.25]]]},"properties":{"PRUID":"10","PRNAME":"Newfoundland and Labrador / Terre-Neuve-et-Labrador","PREABBR":"N.L."}},{"type":"Feature","geometry":{"type":"Polygon","coordinates":[[[-62.319,46.165],[-61.957,46.466],[-63.076,46.424],[-63.692,46.577],[-63.978,46.745],[-63.973,47.066],[-64.446,46.68],[-64.428,46.602],[-64.113,46.578],[-64.168,46.399],[-63.833,46.297],[-63.615,46.093],[-63.105,46.003],[-62.868,45.874],[-62.5,45.861],[-62.5,45.969],[-62.319,46.165]]]},"properties":{"PRUID":"11","PRNAME":"Prince Edward Island / Île-du-Prince-Édouard","PREABBR":"P.E.I."}},{"type":"Feature","geometry":{"type":"MultiPolygon","coordinates":[[[[-60.199,43.944],[-59.88,43.909],[-59.67,44.051],[-59.975,43.967],[-60.295,44],[-60.199,43.944]]],[[[-60.287,46.959],[-60.109,47.232],[-60.62,47.06],[-61.584,46],[-61.999,45.898],[-62.453,45.672],[-62.604,45.723],[-62.5,45.861],[-62.868,45.874],[-63.105,46.003],[-63.579,46.1],[-64.027,46.022],[-64.934,45.449],[-65.039,45.094],[-66.02,44.605],[-66.447,44.244],[-66.222,44.001],[-66.176,43.627],[-66.023,43.524],[-65.994,43.272],[-65.864,43.253],[-65.375,43.433],[-64.951,43.752],[-64.76,43.752],[-64.613,44.002],[-64,44.41],[-64.003,44.502],[-63.539,44.414],[-63.499,44.563],[-62.197,44.81],[-61.996,44.976],[-61.09,45.173],[-60.917,45.295],[-60.89,45.508],[-60.508,45.536],[-60.144,45.691],[-59.652,46.059],[-59.773,46.192],[-60.341,46.36],[-60.287,46.959]]]]},"properties":{"PRUID":"12","PRNAME":"Nova Scotia / Nouvelle-Écosse","PREABBR":"N.S."}},{"type":"Feature","geometry":{"type":"Polygon","coordinates":[[[-64.734,47.639],[-64.544,47.76],[-64.484,48.012],[-64.751,47.869],[-65.146,47.862],[-65.643,47.683],[-65.723,47.854],[-65.505,48],[-66.462,48.086],[-66.921,47.985],[-66.958,47.892],[-67.059,47.936],[-67.374,47.844],[-67.593,47.924],[-67.598,48],[-68.123,48],[-68.123,47.916],[-68.382,47.916],[-68.384,47.553],[-69.051,47.256],[-68.9,47.178],[-68.234,47.355],[-67.79,47.067],[-67.751,45.918],[-67.818,45.694],[-67.431,45.584],[-67.416,45.501],[-67.504,45.487],[-67.419,45.377],[-67.49,45.282],[-67.429,45.193],[-67.341,45.125],[-67.283,45.192],[-67.159,45.162],[-66.965,44.829],[-66.863,44.779],[-66.911,44.579],[-66.715,44.556],[-66.665,44.917],[-66.091,45.212],[-65.501,45.29],[-65.23,45.477],[-64.806,45.536],[-64.149,45.98],[-63.615,46.093],[-63.749,46.23],[-64.506,46.252],[-64.51,46.436],[-64.864,46.812],[-64.763,47.008],[-64.885,47.223],[-64.734,47.639]]]},"properties":{"PRUID":"13","PRNAME":"New Brunswick / Nouveau-Brunswick","PREABBR":"N.B."}},{"type":"Feature","geometry":{"type":"MultiPolygon","coordinates":[[[[-62,47.208],[-61.684,47.258],[-61.683,47.479],[-61.44,47.556],[-61.11,47.854],[-61.493,47.812],[-61.643,47.59],[-61.956,47.403],[-62,47.208]]],[[[-72.917,62.175],[-73.671,62.491],[-74.377,62.28],[-74.808,62.251],[-75.759,62.319],[-77.426,62.592],[-78.114,62.369],[-78.224,62.263],[-78.048,61.735],[-77.851,61.567],[-77.796,61.21],[-77.859,61.072],[-78.227,60.784],[-78.073,60.816],[-77.871,60.665],[-77.911,60.581],[-77.567,60.156],[-77.656,60.05],[-77.47,59.89],[-77.597,59.758],[-77.855,59.729],[-77.869,59.555],[-77.994,59.431],[-77.939,59.343],[-78.579,58.917],[-78.651,58.813],[-78.623,58.614],[-77.192,58.018],[-76.634,57.26],[-76.518,56.452],[-76.691,56.048],[-77.553,55.396],[-78.317,55.042],[-79.771,54.626],[-79.51,54.424],[-79.516,54.143],[-78.964,54.005],[-79.155,53.948],[-78.985,53.9],[-79.114,53.892],[-79.036,53.785],[-79.159,53.694],[-79.053,53.68],[-79.029,53.57],[-79.139,53.5],[-78.909,53.228],[-78.997,53.014],[-78.844,52.98],[-78.923,52.912],[-78.758,52.844],[-78.88,52.741],[-78.731,52.669],[-78.816,52.641],[-78.739,52.612],[-78.771,52.539],[-78.595,52.502],[-78.521,52.332],[-78.59,52.147],[-79.059,51.768],[-78.823,51.469],[-78.96,51.459],[-79.299,51.693],[-79.586,51.566],[-79.516,51.461],[-79.51,47.544],[-79.587,47.433],[-79.427,47.25],[-79.435,47.084],[-78.711,46.326],[-77.675,46.199],[-76.988,45.787],[-76.913,45.804],[-76.928,45.892],[-76.783,45.874],[-76.659,45.561],[-76.366,45.458],[-76.09,45.514],[-75.818,45.373],[-74.937,45.645],[-74.381,45.566],[-74.472,45.303],[-74.32,45.187],[-74.663,44.999],[-71.501,45.014],[-71.397,45.203],[-71.442,45.239],[-71.284,45.302],[-71.147,45.24],[-71.01,45.348],[-70.858,45.229],[-70.796,45.428],[-70.635,45.384],[-70.723,45.512],[-70.259,45.89],[-70.318,46.019],[-70.236,46.145],[-70.293,46.191],[-70.056,46.416],[-69.997,46.696],[-69.224,47.46],[-69.044,47.427],[-69.051,47.3],[-68.568,47.427],[-68.384,47.553],[-68.382,47.916],[-68.123,47.916],[-68.123,48],[-67.598,48],[-67.593,47.924],[-67.374,47.844],[-67.059,47.936],[-66.958,47.892],[-66.921,47.985],[-66.422,48.089],[-64.931,48],[-64.608,48.105],[-64.765,48.201],[-64.62,48.334],[-64.127,48.502],[-64.192,48.918],[-64.753,49.2],[-66.005,49.245],[-66.871,49.105],[-67.491,49.102],[-67.096,49.205],[-66.509,49.616],[-66.04,49.71],[-64.221,49.558],[-64,49.512],[-63.576,49.218],[-62.477,49.036],[-61.696,49.011],[-60.15,49.993],[-58.957,50.542],[-58.409,51.068],[-57.11,51.287],[-57.108,51.999],[-63.801,51.998],[-63.827,52.086],[-63.642,52.047],[-63.836,52.314],[-63.744,52.315],[-64.013,52.363],[-64.097,52.473],[-63.95,52.607],[-63.38,52.662],[-63.618,52.771],[-63.614,52.878],[-63.721,52.77],[-64.14,52.727],[-64.155,52.603],[-64.226,52.582],[-64.109,52.394],[-64.247,52.275],[-64.166,52.116],[-64.25,52.145],[-64.292,52.078],[-64.237,51.978],[-64.361,52.006],[-64.274,51.742],[-64.549,51.574],[-64.71,51.756],[-64.925,51.778],[-64.951,51.715],[-65.18,51.766],[-65.284,51.874],[-65.36,51.823],[-65.359,51.981],[-65.499,52.11],[-65.65,51.987],[-65.668,52.117],[-65.996,52.055],[-66.267,52.31],[-66.268,52.15],[-66.376,52.153],[-66.491,52.342],[-66.344,52.36],[-66.44,52.636],[-66.277,52.634],[-66.416,52.858],[-66.283,52.833],[-66.273,52.896],[-66.459,53.055],[-66.495,52.95],[-66.648,52.925],[-66.651,52.781],[-66.787,52.797],[-66.765,52.666],[-66.86,52.768],[-66.851,52.675],[-67.034,52.747],[-67.063,52.875],[-67.161,52.817],[-67.336,52.89],[-67.245,52.98],[-67.363,52.996],[-67.385,53.132],[-67.263,53.181],[-66.99,53.084],[-66.953,53.29],[-67.027,53.335],[-66.89,53.413],[-67.062,53.537],[-67.308,53.546],[-67.418,53.725],[-67.603,53.763],[-67.498,53.837],[-67.821,54.02],[-67.758,54.092],[-67.81,54.128],[-67.616,54.196],[-67.776,54.435],[-67.648,54.51],[-67.5,54.482],[-67.492,54.585],[-67.273,54.487],[-67.28,54.592],[-67.072,54.674],[-67.446,55.009],[-67.41,55.089],[-67.263,55.072],[-67.033,54.862],[-66.667,54.711],[-66.74,54.809],[-66.603,54.814],[-66.766,55],[-66.627,54.985],[-66.789,55.118],[-66.755,55.215],[-66.67,55.177],[-66.808,55.357],[-66.493,55.203],[-66.246,54.975],[-65.85,54.927],[-65.693,54.708],[-65.456,54.729],[-65.487,54.834],[-65.296,54.818],[-65.086,54.97],[-64.761,54.83],[-64.77,54.73],[-64.557,54.714],[-64.397,54.791],[-64.178,54.721],[-64.107,54.613],[-63.713,54.625],[-63.924,54.778],[-63.817,54.817],[-63.821,54.948],[-63.591,54.897],[-63.602,55.129],[-63.403,55.249],[-63.679,55.267],[-63.32,55.412],[-63.793,55.467],[-63.644,55.642],[-63.765,55.652],[-63.667,55.788],[-63.768,55.79],[-63.854,55.91],[-63.444,56.03],[-63.838,56.045],[-63.856,56.137],[-64.035,56.07],[-64.036,56.155],[-63.863,56.213],[-64.087,56.257],[-64.178,56.425],[-63.874,56.442],[-64.145,56.7],[-64.003,56.862],[-63.859,56.869],[-63.918,56.904],[-63.89,57.086],[-63.812,57.079],[-63.737,57.222],[-63.809,57.262],[-63.884,57.196],[-63.883,57.278],[-63.701,57.368],[-63.772,57.592],[-63.623,57.642],[-63.597,57.741],[-63.693,57.653],[-63.883,57.713],[-63.912,57.801],[-64.072,57.77],[-64.219,58.037],[-64.435,58.098],[-64.422,58.187],[-64.218,58.248],[-64.159,58.371],[-63.808,58.49],[-63.887,58.572],[-64.105,58.563],[-64.047,58.703],[-63.468,58.762],[-63.71,58.887],[-64.138,58.746],[-64.288,58.897],[-64.889,58.938],[-64.779,59.075],[-64.46,58.982],[-64.262,59.013],[-64.498,59.106],[-64.544,59.31],[-64.461,59.412],[-64.512,59.423],[-64.324,59.513],[-64.68,59.447],[-64.939,59.567],[-64.749,59.717],[-64.825,59.826],[-64.627,59.93],[-64.924,60.061],[-64.594,60.117],[-64.862,60.258],[-64.517,60.304],[-64.845,60.375],[-65.073,60.065],[-65.172,60.069],[-65.255,59.938],[-65.579,59.765],[-65.592,59.528],[-65.955,59.311],[-65.928,58.955],[-66.485,58.879],[-66.605,58.656],[-66.763,58.558],[-67.674,58.284],[-67.643,58.442],[-67.719,58.523],[-68.21,58.601],[-68.258,58.837],[-68.412,58.925],[-68.915,58.983],[-69.201,59.225],[-69.23,59.356],[-69.469,59.496],[-69.472,59.848],[-69.586,59.984],[-69.538,60.21],[-69.708,60.464],[-69.606,60.59],[-69.635,60.681],[-69.271,60.853],[-69.475,61.063],[-69.665,61.063],[-69.908,60.817],[-70.05,60.878],[-70.129,61.096],[-70.641,61.058],[-71.394,61.183],[-71.652,61.306],[-71.505,61.618],[-72.209,61.743],[-72.11,61.796],[-72.58,61.951],[-72.613,62.124],[-72.917,62.175]]]]},"properties":{"PRUID":"24","PRNAME":"Quebec / Québec","PREABBR":"Que."}},{"type":"Feature","geometry":{"type":"Polygon","coordinates":[[[-88.874,56.862],[-90.628,55.832],[-93.638,53.745],[-95.153,52.841],[-95.156,49.393],[-94.816,49.321],[-94.691,48.778],[-93.844,48.63],[-93.793,48.516],[-93.255,48.643],[-92.955,48.632],[-92.635,48.543],[-92.713,48.463],[-92.456,48.414],[-92.37,48.22],[-92.27,48.248],[-92.263,48.355],[-92.055,48.359],[-91.958,48.233],[-91.559,48.109],[-91.568,48.044],[-91.267,48.079],[-90.886,48.246],[-90.752,48.091],[-90.143,48.113],[-89.897,47.987],[-89.337,47.974],[-88.369,48.306],[-84.854,46.892],[-84.763,46.634],[-84.557,46.461],[-84.129,46.531],[-84.108,46.241],[-83.955,46.057],[-83.572,46.106],[-83.434,45.998],[-83.594,45.82],[-82.877,45.502],[-82,45.5],[-82,45.361],[-81.817,45.362],[-81.603,45.047],[-81.447,44.994],[-81.337,44.758],[-81.353,44.615],[-81.628,44.346],[-81.761,44.091],[-81.763,43.32],[-81.984,43.235],[-82.295,43.25],[-82.523,42.607],[-83.128,42.239],[-83.15,42.041],[-83.069,41.864],[-82.68,41.677],[-82.5,41.677],[-82.465,42.06],[-82.047,42.25],[-81.786,42.261],[-81.624,42.436],[-81.501,42.336],[-81.502,42.501],[-80.249,42.507],[-80.026,42.545],[-80.032,42.759],[-79.142,42.751],[-78.935,42.828],[-78.91,42.934],[-79.077,43.08],[-79.059,43.258],[-79.319,43.248],[-79.343,43.182],[-79.711,43.237],[-79.797,43.318],[-79.47,43.632],[-79.344,43.611],[-79.092,43.809],[-77.625,43.997],[-77.566,43.879],[-77.148,43.798],[-76.583,43.909],[-76.313,44.199],[-75.913,44.368],[-75.307,44.837],[-74.972,44.983],[-74.673,45.001],[-74.32,45.187],[-74.472,45.303],[-74.381,45.566],[-74.636,45.639],[-75.243,45.586],[-75.818,45.373],[-76.09,45.514],[-76.362,45.457],[-76.609,45.534],[-76.77,45.734],[-76.783,45.874],[-76.928,45.892],[-76.913,45.804],[-76.988,45.787],[-77.675,46.199],[-78.711,46.326],[-79.435,47.084],[-79.427,47.25],[-79.587,47.433],[-79.51,47.544],[-79.516,51.461],[-79.681,51.408],[-79.677,51.338],[-79.732,51.371],[-79.672,51.256],[-79.784,51.152],[-80.397,51.329],[-80.688,51.848],[-81.425,52.145],[-81.561,52.295],[-81.532,52.443],[-82.293,52.957],[-82.259,53.171],[-82.108,53.273],[-82.215,53.591],[-82.123,53.818],[-82.189,53.985],[-82.436,54.203],[-82.448,54.357],[-82.195,54.804],[-82.252,55.11],[-82.349,55.156],[-82.307,55.053],[-82.674,55.182],[-82.797,55.128],[-82.954,55.224],[-83.338,55.199],[-83.893,55.295],[-84.544,55.224],[-85.125,55.261],[-85.122,55.336],[-85.36,55.378],[-85.896,55.656],[-86.901,55.914],[-87.361,55.955],[-87.657,56.107],[-87.979,56.473],[-88.624,56.679],[-88.874,56.862]]]},"properties":{"PRUID":"35","PRNAME":"Ontario","PREABBR":"Ont."}},{"type":"Feature","geometry":{"type":"Polygon","coordinates":[[[-94.823,59.999],[-102,60],[-102.004,55.809],[-101.701,53.366],[-101.362,48.999],[-95.153,48.999],[-95.153,52.841],[-93.638,53.745],[-91.346,55.362],[-88.98,56.851],[-89.949,57],[-90.882,57.268],[-91.958,57.052],[-92.441,57.047],[-92.731,56.922],[-92.425,57.358],[-93.114,58.475],[-93.167,58.724],[-94.207,58.815],[-94.341,58.711],[-94.465,58.725],[-94.603,58.94],[-94.798,59.011],[-94.804,59.266],[-94.664,59.35],[-94.747,59.338],[-94.71,59.384],[-94.836,59.602],[-94.772,59.786],[-94.823,59.999]]]},"properties":{"PRUID":"46","PRNAME":"Manitoba","PREABBR":"Man."}},{"type":"Feature","geometry":{"type":"Polygon","coordinates":[[[-109.638,60],[-110,60],[-110.005,49],[-101.362,48.999],[-101.701,53.366],[-102.004,55.809],[-102,60],[-109.638,60]]]},"properties":{"PRUID":"47","PRNAME":"Saskatchewan","PREABBR":"Sask."}},{"type":"Feature","geometry":{"type":"Polygon","coordinates":[[[-110,59.953],[-120,60],[-120,53.806],[-119.713,53.615],[-119.926,53.615],[-119.899,53.519],[-119.669,53.368],[-119.391,53.361],[-119.257,53.177],[-119.025,53.127],[-118.975,53.242],[-118.787,53.159],[-118.73,53.115],[-118.776,53.045],[-118.655,53.035],[-118.614,52.884],[-118.387,52.847],[-118.422,52.776],[-118.29,52.678],[-118.353,52.611],[-118.193,52.478],[-118.255,52.45],[-118.219,52.374],[-118.044,52.398],[-117.988,52.5],[-117.706,52.365],[-117.818,52.226],[-117.611,52.144],[-117.317,52.194],[-117.305,52.074],[-117.011,51.89],[-116.921,51.71],[-116.659,51.805],[-116.595,51.662],[-116.284,51.456],[-116.268,51.312],[-115.628,50.981],[-115.562,50.894],[-115.639,50.838],[-115.312,50.724],[-115.208,50.528],[-115.015,50.582],[-114.769,50.359],[-114.736,50.12],[-114.662,50.065],[-114.634,49.73],[-114.752,49.609],[-114.574,49.557],[-114.591,49.396],[-114.399,49.21],[-114.161,49.155],[-114.068,48.999],[-110.005,49],[-110,59.953]]]},"properties":{"PRUID":"48","PRNAME":"Alberta","PREABBR":"Alta."}},{"type":"Feature","geometry":{"type":"Polygon","coordinates":[[[-135.4,60],[-139.052,60],[-138.706,59.906],[-138.605,59.758],[-137.602,59.241],[-137.527,58.907],[-136.825,59.16],[-136.582,59.166],[-136.468,59.285],[-136.476,59.464],[-136.236,59.527],[-136.356,59.601],[-135.479,59.799],[-135.235,59.696],[-135.028,59.564],[-135.098,59.427],[-134.989,59.388],[-135.03,59.348],[-134.959,59.281],[-134.485,59.133],[-134.256,58.859],[-133.841,58.73],[-133.382,58.433],[-133.461,58.39],[-132.245,57.212],[-132.369,57.091],[-132.046,57.044],[-132.121,56.867],[-131.871,56.806],[-131.834,56.599],[-131.582,56.612],[-130.465,56.241],[-130.42,56.139],[-130.104,56.122],[-130.003,55.912],[-130.172,55.705],[-129.974,55.285],[-130.284,54.966],[-130.659,54.764],[-130.617,54.709],[-133.244,54.646],[-133.234,53.72],[-132.957,52.994],[-132.758,52.75],[-132.5,52.75],[-132.5,52.56],[-132.067,52.223],[-131.071,51.891],[-130.457,51.969],[-131.04,52.897],[-131.007,53.084],[-130.7,53.366],[-130.376,53.136],[-129.945,52.984],[-129.447,52.469],[-128.804,52.364],[-128.749,52.193],[-128.822,52],[-129.068,52],[-129,51.821],[-129,51.201],[-129.102,50.755],[-128.571,50.275],[-127.985,49.997],[-127.452,49.553],[-126.614,49.54],[-126.594,49.348],[-126.251,49.251],[-125.8,48.926],[-125.097,48.597],[-124.5,48.5],[-123.756,48.253],[-123.25,48.25],[-123.114,48.423],[-123.268,48.694],[-123.009,48.767],[-123.009,48.831],[-123.319,49],[-114.055,49.024],[-114.591,49.396],[-114.574,49.557],[-114.733,49.576],[-114.634,49.73],[-114.662,50.065],[-114.736,50.12],[-114.769,50.359],[-115.015,50.582],[-115.208,50.528],[-115.312,50.724],[-115.639,50.838],[-115.562,50.894],[-115.628,50.981],[-116.268,51.312],[-116.284,51.456],[-116.595,51.662],[-116.659,51.805],[-116.921,51.71],[-117.011,51.89],[-117.305,52.074],[-117.317,52.194],[-117.611,52.144],[-117.818,52.226],[-117.706,52.365],[-117.988,52.5],[-118.044,52.398],[-118.219,52.374],[-118.255,52.45],[-118.193,52.478],[-118.353,52.611],[-118.29,52.678],[-118.422,52.776],[-118.387,52.847],[-118.614,52.884],[-118.655,53.035],[-118.776,53.045],[-118.73,53.115],[-118.787,53.159],[-118.975,53.242],[-119.025,53.127],[-119.257,53.177],[-119.391,53.361],[-119.669,53.368],[-119.899,53.519],[-119.926,53.615],[-119.713,53.615],[-120,53.806],[-120,60],[-135.4,60]]]},"properties":{"PRUID":"59","PRNAME":"British Columbia / Colombie-Britannique","PREABBR":"B.C."}},{"type":"Feature","geometry":{"type":"Polygon","coordinates":[[[-139.356,69.592],[-141.01,69.689],[-140.998,60.308],[-140.517,60.22],[-140.448,60.308],[-139.972,60.184],[-139.68,60.336],[-139.052,60.354],[-139.177,60.083],[-139.057,60],[-123.789,60],[-124.124,60.206],[-124.198,60.446],[-124.389,60.458],[-124.571,60.641],[-124.599,60.688],[-124.449,60.765],[-124.539,60.939],[-124.788,60.955],[-124.826,60.837],[-125.264,60.768],[-125.832,60.881],[-125.967,60.789],[-126.063,60.851],[-126.284,60.759],[-126.813,60.759],[-126.897,61.041],[-127.072,61.067],[-126.953,61.215],[-127.103,61.458],[-127.767,61.594],[-128.55,62.116],[-128.73,62.043],[-129.236,62.138],[-129.163,62.204],[-129.265,62.3],[-129.19,62.362],[-129.285,62.4],[-129.16,62.479],[-129.522,62.552],[-129.485,62.662],[-129.743,62.838],[-129.613,63.073],[-129.821,63.082],[-129.911,63.192],[-130.158,63.242],[-129.866,63.367],[-129.874,63.457],[-129.785,63.446],[-129.928,63.592],[-130.081,63.608],[-130.073,63.683],[-130.34,63.691],[-130.101,63.754],[-130.109,63.839],[-130.339,63.813],[-130.776,63.976],[-130.723,64.027],[-130.87,64.032],[-130.968,64.13],[-130.859,64.172],[-131.074,64.273],[-131.027,64.305],[-131.147,64.404],[-131.372,64.451],[-131.624,64.354],[-131.858,64.381],[-131.685,64.521],[-131.839,64.525],[-132.038,64.696],[-132.628,64.83],[-132.336,65.061],[-132.543,65.09],[-132.509,65.174],[-132.727,65.158],[-132.748,65.227],[-132.275,65.458],[-132.168,65.602],[-132.596,65.857],[-132.378,65.989],[-132.657,66.016],[-132.909,65.884],[-133.022,65.919],[-132.921,66.02],[-133.658,65.96],[-133.599,66.057],[-133.691,66.071],[-133.549,66.17],[-133.554,66.257],[-133.835,66.317],[-133.734,66.44],[-133.61,66.436],[-133.69,66.528],[-133.582,66.562],[-133.793,66.649],[-133.748,66.679],[-133.846,66.723],[-133.76,66.801],[-134.118,66.957],[-133.83,67],[-136.164,67],[-136.235,67.173],[-136.087,67.301],[-136.222,67.405],[-136.17,67.504],[-136.241,67.611],[-136.449,67.649],[-136.469,68.894],[-137.981,69.14],[-138.942,69.46],[-138.956,69.527],[-138.762,69.576],[-138.92,69.653],[-139.356,69.592]]]},"properties":{"PRUID":"60","PRNAME":"Yukon","PREABBR":"Y.T."}},{"type":"Feature","geometry":{"type":"Polygon","coordinates":[[[-109.831,74.898],[-109.835,80],[-128.949,89.999],[-141.01,74.764],[-141.01,69.689],[-139.482,69.584],[-138.991,69.666],[-138.762,69.576],[-138.956,69.527],[-138.942,69.46],[-137.981,69.14],[-136.469,68.894],[-136.449,67.649],[-136.241,67.611],[-136.17,67.504],[-136.222,67.405],[-136.087,67.301],[-136.235,67.173],[-136.164,67],[-133.83,67],[-134.118,66.957],[-133.76,66.801],[-133.846,66.723],[-133.748,66.679],[-133.793,66.649],[-133.582,66.562],[-133.69,66.528],[-133.61,66.436],[-133.734,66.44],[-133.835,66.317],[-133.554,66.257],[-133.549,66.17],[-133.691,66.071],[-133.599,66.057],[-133.658,65.96],[-132.921,66.02],[-133.022,65.919],[-132.909,65.884],[-132.657,66.016],[-132.378,65.989],[-132.596,65.857],[-132.168,65.602],[-132.275,65.458],[-132.748,65.227],[-132.727,65.158],[-132.509,65.174],[-132.543,65.09],[-132.336,65.061],[-132.628,64.83],[-132.038,64.696],[-131.839,64.525],[-131.685,64.521],[-131.858,64.381],[-131.624,64.354],[-131.372,64.451],[-131.147,64.404],[-131.027,64.305],[-131.074,64.273],[-130.859,64.172],[-130.968,64.13],[-130.87,64.032],[-130.723,64.027],[-130.776,63.976],[-130.339,63.813],[-130.109,63.839],[-130.101,63.754],[-130.34,63.691],[-130.073,63.683],[-130.081,63.608],[-129.928,63.592],[-129.785,63.446],[-129.874,63.457],[-129.866,63.367],[-130.158,63.242],[-129.911,63.192],[-129.821,63.082],[-129.613,63.073],[-129.743,62.838],[-129.485,62.662],[-129.522,62.552],[-129.16,62.479],[-129.285,62.4],[-129.19,62.362],[-129.265,62.3],[-129.163,62.204],[-129.236,62.138],[-128.73,62.043],[-128.55,62.116],[-127.767,61.594],[-127.103,61.458],[-126.953,61.215],[-127.072,61.067],[-126.897,61.041],[-126.813,60.759],[-126.284,60.759],[-126.063,60.851],[-125.967,60.789],[-125.832,60.881],[-125.264,60.768],[-124.826,60.837],[-124.788,60.955],[-124.539,60.939],[-124.449,60.765],[-124.599,60.688],[-124.571,60.641],[-124.389,60.458],[-124.198,60.446],[-124.124,60.206],[-123.789,60],[-102,60],[-102,64.189],[-108.838,64.732],[-110.538,65.446],[-112.583,65.447],[-117.065,66.929],[-118.594,67.199],[-120.631,67.78],[-120.606,68.623],[-120.725,69.575],[-116.466,69.703],[-116.755,69.786],[-117.023,70],[-112.825,70.003],[-112.818,69.847],[-112.518,69.848],[-112.511,70.002],[-109.862,69.998],[-109.831,74.898]]]},"properties":{"PRUID":"61","PRNAME":"Northwest Territories / Territoires du Nord-Ouest","PREABBR":"N.W.T."}},{"type":"Feature","geometry":{"type":"Polygon","coordinates":[[[-61.225,69.984],[-61.481,70.496],[-63.066,71.721],[-66.499,73.317],[-68.05,73.503],[-72.891,74.698],[-73.812,75.645],[-74.291,75.989],[-74.728,76.503],[-74.985,76.685],[-74.885,76.837],[-74.75,77.541],[-73.022,78.801],[-69.757,79.628],[-68.615,80.339],[-67.127,80.761],[-62.876,81.566],[-62.761,81.728],[-61.585,81.971],[-59.991,82.184],[-60,84],[-128.949,89.999],[-109.835,80],[-109.862,69.998],[-112.511,70.002],[-112.518,69.848],[-112.818,69.847],[-112.825,70.003],[-117.023,70],[-116.755,69.786],[-116.466,69.703],[-120.725,69.575],[-120.606,68.623],[-120.631,67.78],[-118.594,67.199],[-117.065,66.929],[-112.583,65.447],[-110.538,65.446],[-108.838,64.732],[-102,64.189],[-102,60],[-94.824,60],[-94.772,59.786],[-94.836,59.602],[-94.71,59.384],[-94.747,59.338],[-94.664,59.35],[-94.804,59.266],[-94.798,59.011],[-94.603,58.94],[-94.465,58.725],[-94.341,58.711],[-94.207,58.815],[-93.167,58.724],[-93.114,58.475],[-92.425,57.358],[-92.731,56.922],[-92.443,57.047],[-91.958,57.052],[-91.159,57.252],[-90.636,57.238],[-89.949,57],[-88.864,56.86],[-88.624,56.679],[-87.979,56.473],[-87.657,56.107],[-87.361,55.955],[-86.901,55.914],[-85.896,55.656],[-85.36,55.378],[-85.122,55.336],[-85.125,55.261],[-84.544,55.224],[-83.887,55.295],[-83.338,55.199],[-82.954,55.224],[-82.797,55.128],[-82.674,55.182],[-82.306,55.053],[-82.32,55.148],[-82.252,55.11],[-82.195,54.804],[-82.447,54.36],[-82.436,54.205],[-82.244,54.051],[-82.124,53.827],[-82.215,53.591],[-82.108,53.274],[-82.259,53.171],[-82.293,52.957],[-81.532,52.443],[-81.561,52.295],[-81.425,52.145],[-80.688,51.848],[-80.418,51.344],[-79.883,51.171],[-79.773,51.156],[-79.673,51.253],[-79.732,51.371],[-79.677,51.338],[-79.681,51.408],[-79.528,51.462],[-79.581,51.593],[-79.465,51.669],[-79.269,51.688],[-78.96,51.459],[-78.823,51.469],[-79.059,51.768],[-78.59,52.147],[-78.521,52.332],[-78.595,52.502],[-78.771,52.539],[-78.739,52.612],[-78.816,52.641],[-78.731,52.669],[-78.88,52.741],[-78.758,52.844],[-78.923,52.912],[-78.844,52.98],[-78.997,53.014],[-78.909,53.228],[-79.139,53.5],[-79.029,53.57],[-79.053,53.68],[-79.159,53.694],[-79.036,53.785],[-79.114,53.892],[-78.985,53.9],[-79.155,53.948],[-78.964,54.005],[-79.516,54.143],[-79.51,54.424],[-79.77,54.628],[-78.317,55.042],[-77.553,55.396],[-76.691,56.048],[-76.527,56.38],[-76.519,56.787],[-76.634,57.26],[-77.192,58.018],[-78.623,58.614],[-78.651,58.813],[-78.579,58.917],[-77.939,59.343],[-77.994,59.431],[-77.869,59.555],[-77.855,59.729],[-77.597,59.758],[-77.47,59.89],[-77.656,60.05],[-77.567,60.156],[-77.911,60.581],[-77.871,60.665],[-78.073,60.816],[-78.227,60.784],[-77.859,61.072],[-77.796,61.21],[-77.851,61.567],[-78.048,61.735],[-78.178,61.989],[-78.233,62.214],[-78.114,62.369],[-77.515,62.594],[-76.775,62.529],[-75.759,62.319],[-74.808,62.251],[-74.377,62.28],[-73.671,62.491],[-72.848,62.149],[-72.613,62.124],[-72.58,61.951],[-72.11,61.796],[-72.21,61.744],[-71.523,61.629],[-71.558,61.402],[-71.652,61.306],[-71.394,61.183],[-70.641,61.058],[-70.129,61.096],[-70.05,60.878],[-69.908,60.817],[-69.665,61.063],[-69.491,61.071],[-69.271,60.853],[-69.635,60.681],[-69.606,60.59],[-69.708,60.464],[-69.538,60.21],[-69.586,59.984],[-69.472,59.848],[-69.469,59.496],[-69.23,59.356],[-69.201,59.225],[-68.915,58.983],[-68.412,58.925],[-68.258,58.837],[-68.21,58.601],[-67.719,58.523],[-67.643,58.442],[-67.674,58.284],[-67.611,58.266],[-66.684,58.6],[-66.485,58.879],[-65.928,58.955],[-65.955,59.311],[-65.592,59.528],[-65.579,59.765],[-65.255,59.938],[-65.172,60.069],[-65.073,60.065],[-64.845,60.375],[-64.517,60.304],[-64.491,60.373],[-64.185,60.375],[-63.996,60],[-62,60.432],[-60,60.625],[-60,68.75],[-61.002,69.345],[-61.225,69.984]]]},"properties":{"PRUID":"62","PRNAME":"Nunavut","PREABBR":"Nvt."}}],"source":{"agency":"Statistics Canada","layer":"2021 Digital boundary files — provinces and territories","url":"https://geo.statcan.gc.ca/geo_wa/rest/services/2021/Digital_boundary_files/MapServer/0","fallbackReason":null},"generatedAt":"2026-09-26T18:46:30.133Z"}